{
  "norad_id": 20929,
  "name": "USA 65 (DSP 15)",
  "history": [
    {
      "epoch": "2026-04-14T20:58:37.653024Z",
      "apogee_km": 36337.612443620405,
      "perigee_km": 36302.40355325469,
      "latitude_deg": -1.0565717058687234,
      "longitude_deg": 10.981719182176505,
      "height_km": 36326.17593072007,
      "semi_major_axis_km": 42698.14499843755,
      "eccentricity": 0.0004123,
      "inclination_deg": 14.0435,
      "raan_deg": 344.4822,
      "arg_perigee_deg": 73.0968,
      "mean_anomaly_deg": 111.1776,
      "mean_motion_rev_day": 0.98398675
    },
    {
      "epoch": "2026-04-16T08:51:51.972192Z",
      "apogee_km": 36337.14067597391,
      "perigee_km": 36302.794320715446,
      "latitude_deg": -1.4605361834240556,
      "longitude_deg": 1.1029313305313537,
      "height_km": 36316.15174726756,
      "semi_major_axis_km": 42698.104498344685,
      "eccentricity": 0.0004022,
      "inclination_deg": 14.0425,
      "raan_deg": 344.4725,
      "arg_perigee_deg": 72.2876,
      "mean_anomaly_deg": 281.6924,
      "mean_motion_rev_day": 0.98398815
    },
    {
      "epoch": "2026-04-17T08:47:15.033408Z",
      "apogee_km": 36336.97631675507,
      "perigee_km": 36302.9621513669,
      "latitude_deg": -3.109267162857968,
      "longitude_deg": -5.427151977009123,
      "height_km": 36318.28889741033,
      "semi_major_axis_km": 42698.106234060986,
      "eccentricity": 0.00039831,
      "inclination_deg": 14.0419,
      "raan_deg": 344.4661,
      "arg_perigee_deg": 71.6496,
      "mean_anomaly_deg": 275.4409,
      "mean_motion_rev_day": 0.98398809
    },
    {
      "epoch": "2026-04-17T22:27:37.110816Z",
      "apogee_km": 36336.93587231218,
      "perigee_km": 36303.034417291645,
      "latitude_deg": -2.1754777438938726,
      "longitude_deg": -9.812318839592246,
      "height_km": 36327.88954903145,
      "semi_major_axis_km": 42698.12214480191,
      "eccentricity": 0.00039699,
      "inclination_deg": 14.0416,
      "raan_deg": 344.4627,
      "arg_perigee_deg": 71.0337,
      "mean_anomaly_deg": 117.8701,
      "mean_motion_rev_day": 0.98398754
    },
    {
      "epoch": "2026-04-19T10:20:55.273920Z",
      "apogee_km": 36336.86617512566,
      "perigee_km": 36303.196107656084,
      "latitude_deg": -0.33289732847556625,
      "longitude_deg": -19.685792510493556,
      "height_km": 36314.07633996595,
      "semi_major_axis_km": 42698.168141390874,
      "eccentricity": 0.00039428,
      "inclination_deg": 14.0406,
      "raan_deg": 344.4534,
      "arg_perigee_deg": 69.6657,
      "mean_anomaly_deg": 288.9588,
      "mean_motion_rev_day": 0.98398595
    },
    {
      "epoch": "2026-04-19T22:18:50.870016Z",
      "apogee_km": 36336.93212028134,
      "perigee_km": 36303.17066272017,
      "latitude_deg": 1.1306434594914672,
      "longitude_deg": -22.854369892020173,
      "height_km": 36324.230443934684,
      "semi_major_axis_km": 42698.18839150076,
      "eccentricity": 0.00039535,
      "inclination_deg": 14.0402,
      "raan_deg": 344.4503,
      "arg_perigee_deg": 69.1865,
      "mean_anomaly_deg": 106.0507,
      "mean_motion_rev_day": 0.98398525
    },
    {
      "epoch": "2026-04-20T23:56:41.300736Z",
      "apogee_km": 36337.089444921694,
      "perigee_km": 36303.12384606658,
      "latitude_deg": -3.2826357187509196,
      "longitude_deg": -30.5953456766985,
      "height_km": 36330.038572107704,
      "semi_major_axis_km": 42698.24364549414,
      "eccentricity": 0.00039774,
      "inclination_deg": 14.0396,
      "raan_deg": 344.4437,
      "arg_perigee_deg": 68.3733,
      "mean_anomaly_deg": 125.1775,
      "mean_motion_rev_day": 0.98398334
    },
    {
      "epoch": "2026-04-22T11:49:58.986048Z",
      "apogee_km": 36337.4774982556,
      "perigee_km": 36302.91746632563,
      "latitude_deg": 0.7929863622409347,
      "longitude_deg": -40.476163480199425,
      "height_km": 36312.030991276704,
      "semi_major_axis_km": 42698.334482290615,
      "eccentricity": 0.0004047,
      "inclination_deg": 14.0386,
      "raan_deg": 344.4345,
      "arg_perigee_deg": 67.3538,
      "mean_anomaly_deg": 295.9125,
      "mean_motion_rev_day": 0.9839802
    },
    {
      "epoch": "2026-04-22T11:49:58.986912Z",
      "apogee_km": 36337.4766442889,
      "perigee_km": 36302.918320292316,
      "latitude_deg": 0.7929868636276733,
      "longitude_deg": -40.476165082677376,
      "height_km": 36312.03136774325,
      "semi_major_axis_km": 42698.334482290615,
      "eccentricity": 0.00040468,
      "inclination_deg": 14.0386,
      "raan_deg": 344.4345,
      "arg_perigee_deg": 67.3538,
      "mean_anomaly_deg": 295.9125,
      "mean_motion_rev_day": 0.9839802
    },
    {
      "epoch": "2026-04-24T11:41:11.679936Z",
      "apogee_km": 36338.237496585316,
      "perigee_km": 36302.4305587815,
      "latitude_deg": -2.514407715304253,
      "longitude_deg": -53.534467546109234,
      "height_km": 36316.26598901516,
      "semi_major_axis_km": 42698.471027683416,
      "eccentricity": 0.0004193,
      "inclination_deg": 14.0372,
      "raan_deg": 344.4219,
      "arg_perigee_deg": 66.9218,
      "mean_anomaly_deg": 282.6667,
      "mean_motion_rev_day": 0.98397548
    },
    {
      "epoch": "2026-04-25T13:19:09.046848Z",
      "apogee_km": 36338.68292114528,
      "perigee_km": 36302.1158945656,
      "latitude_deg": 1.9189208796868096,
      "longitude_deg": -61.27710683996792,
      "height_km": 36310.30202146927,
      "semi_major_axis_km": 42698.53640785544,
      "eccentricity": 0.0004282,
      "inclination_deg": 14.0365,
      "raan_deg": 344.415,
      "arg_perigee_deg": 67.1955,
      "mean_anomaly_deg": 300.7313,
      "mean_motion_rev_day": 0.98397322
    },
    {
      "epoch": "2026-04-26T13:14:42.807840Z",
      "apogee_km": 36339.11676667462,
      "perigee_km": 36301.82380307201,
      "latitude_deg": 0.2619143113343988,
      "longitude_deg": -67.81112267882524,
      "height_km": 36312.5297358404,
      "semi_major_axis_km": 42698.60728487332,
      "eccentricity": 0.0004367,
      "inclination_deg": 14.0358,
      "raan_deg": 344.4082,
      "arg_perigee_deg": 67.7766,
      "mean_anomaly_deg": 293.2986,
      "mean_motion_rev_day": 0.98397077
    },
    {
      "epoch": "2026-04-27T13:10:16.439232Z",
      "apogee_km": 36339.5116809803,
      "perigee_km": 36301.544028191594,
      "latitude_deg": -1.3983327929669191,
      "longitude_deg": -74.34405341502654,
      "height_km": 36315.022704925614,
      "semi_major_axis_km": 42698.66485458595,
      "eccentricity": 0.0004446,
      "inclination_deg": 14.0352,
      "raan_deg": 344.4013,
      "arg_perigee_deg": 68.4303,
      "mean_anomaly_deg": 285.7922,
      "mean_motion_rev_day": 0.98396878
    },
    {
      "epoch": "2026-04-28T14:48:10.331136Z",
      "apogee_km": 36339.89538354128,
      "perigee_km": 36301.22744225856,
      "latitude_deg": 3.024433949541355,
      "longitude_deg": -82.08618906826698,
      "height_km": 36309.092523055224,
      "semi_major_axis_km": 42698.698412899925,
      "eccentricity": 0.0004528,
      "inclination_deg": 14.0345,
      "raan_deg": 344.3938,
      "arg_perigee_deg": 69.361,
      "mean_anomaly_deg": 303.1839,
      "mean_motion_rev_day": 0.98396762
    },
    {
      "epoch": "2026-04-29T14:43:41.736864Z",
      "apogee_km": 36340.20136071254,
      "perigee_km": 36300.986846067186,
      "latitude_deg": 1.3798221086926141,
      "longitude_deg": -88.63090648747821,
      "height_km": 36311.46492103934,
      "semi_major_axis_km": 42698.731103389866,
      "eccentricity": 0.0004592,
      "inclination_deg": 14.0339,
      "raan_deg": 344.3866,
      "arg_perigee_deg": 70.2776,
      "mean_anomaly_deg": 295.4048,
      "mean_motion_rev_day": 0.98396649
    },
    {
      "epoch": "2026-04-30T03:24:38.630592Z",
      "apogee_km": 36340.353350788275,
      "perigee_km": 36300.86725723142,
      "latitude_deg": -3.1267683695505024,
      "longitude_deg": -92.30494060759887,
      "height_km": 36331.230145169204,
      "semi_major_axis_km": 42698.74730400985,
      "eccentricity": 0.00046238,
      "inclination_deg": 14.0335,
      "raan_deg": 344.3827,
      "arg_perigee_deg": 70.8594,
      "mean_anomaly_deg": 122.0156,
      "mean_motion_rev_day": 0.98396593
    },
    {
      "epoch": "2026-05-02T04:14:59.903808Z",
      "apogee_km": 36340.70766444514,
      "perigee_km": 36300.502528886915,
      "latitude_deg": -3.3314833645391113,
      "longitude_deg": -106.07554002939402,
      "height_km": 36331.05830057477,
      "semi_major_axis_km": 42698.74209666603,
      "eccentricity": 0.0004708,
      "inclination_deg": 14.0324,
      "raan_deg": 344.3677,
      "arg_perigee_deg": 73.0229,
      "mean_anomaly_deg": 120.7165,
      "mean_motion_rev_day": 0.98396611
    },
    {
      "epoch": "2026-05-03T16:08:20.543136Z",
      "apogee_km": 36340.777656181424,
      "perigee_km": 36300.324918897815,
      "latitude_deg": 0.8402845847194412,
      "longitude_deg": -115.99032182410927,
      "height_km": 36313.348483396585,
      "semi_major_axis_km": 42698.688287539626,
      "eccentricity": 0.0004737,
      "inclination_deg": 14.0315,
      "raan_deg": 344.3566,
      "arg_perigee_deg": 74.5096,
      "mean_anomaly_deg": 288.9513,
      "mean_motion_rev_day": 0.98396797
    },
    {
      "epoch": "2026-05-04T16:03:53.013312Z",
      "apogee_km": 36340.74553210432,
      "perigee_km": 36300.258682502776,
      "latitude_deg": -0.8245279248624803,
      "longitude_deg": -122.52217831848489,
      "height_km": 36316.29277317811,
      "semi_major_axis_km": 42698.639107303556,
      "eccentricity": 0.0004741,
      "inclination_deg": 14.031,
      "raan_deg": 344.3491,
      "arg_perigee_deg": 75.755,
      "mean_anomaly_deg": 280.8487,
      "mean_motion_rev_day": 0.98396967
    }
  ]
}